0 FENGYUN 1C DEB
1 30649U 99025APG 13280.91573037  .00001469  00000-0  86520-3 0  6717
2 30649 099.0598 316.0112 0066485 208.7737 274.8997 14.08454877341665
0 FENGYUN 1C DEB
1 30649U 99025APG 13282.04028566  .00001488  00000-0  87604-3 0  6721
2 30649 099.0597 317.1406 0066532 205.6568 216.8533 14.08462171341829
0 FENGYUN 1C DEB
1 30649U 99025APG 13283.10611376  .00001328  00000-0  78457-3 0  6736
2 30649 099.0595 318.2111 0066577 202.6947 221.0727 14.08466027341972
0 FENGYUN 1C DEB
1 30649U 99025APG 13286.08797405  .00001474  00000-0  86797-3 0  6754
2 30649 099.0587 321.2060 0066740 194.4902 220.4259 14.08473459342398
0 FENGYUN 1C DEB
1 30649U 99025APG 13287.79321782  .00001990  00000-0  11624-2 0  6764
2 30649 099.0583 322.9186 0066824 189.8670 226.7400 14.08478620342633
0 FENGYUN 1C DEB
1 30649U 99025APG 13289.36913330  .00002051  00000-0  11970-2 0  6779
2 30649 099.0581 324.5010 0066891 185.5626 297.3694 14.08485522342855
0 FENGYUN 1C DEB
1 30649U 99025APG 13290.58231604  .00002191  00000-0  12768-2 0  6784
2 30649 099.0581 325.7193 0066934 182.2288 328.8158 14.08490149343022
0 FENGYUN 1C DEB
1 30649U 99025APG 13291.77306080  .00002458  00000-0  14289-2 0  6794
2 30649 099.0577 326.9147 0066925 178.8777 246.5956 14.08493364343195
0 FENGYUN 1C DEB
1 30649U 99025APG 13292.83578101  .00002545  00000-0  14784-2 0  6806
2 30649 099.0577 327.9818 0066942 175.9554 235.1599 14.08498012343340
0 FENGYUN 1C DEB
1 30649U 99025APG 13294.04577038  .00002551  00000-0  14814-2 0  6811
2 30649 099.0578 329.1966 0066953 172.6081 250.4987 14.08503691343510
